{
  "type": "FeatureCollection",
  "features": [
    {
      "type": "Feature",
      "properties": {
        "norad_id": 37867,
        "name": "COSMOS 2476 (744)",
        "group": "glo-ops",
        "lat": -5.311048461829939,
        "lon": 76.61999480666782,
        "alt_km": 19162.129800042487,
        "timestamp": "2025-12-15T11:38:37.414573+00:00",
        "meta_object_name": "COSMOS 2476 (744)",
        "meta_object_id": "2011-064A",
        "meta_epoch": "2025-12-10T19:30:14.482368",
        "meta_mean_motion": 2.13101258,
        "meta_eccentricity": 0.00238922,
        "meta_inclination": 65.1614,
        "meta_ra_of_asc_node": 79.2364,
        "meta_arg_of_pericenter": 233.6597,
        "meta_mean_anomaly": 135.7131,
        "meta_ephemeris_type": 0,
        "meta_classification_type": "U",
        "meta_norad_cat_id": 37867,
        "meta_element_set_no": 999,
        "meta_rev_at_epoch": 10975,
        "meta_bstar": 0,
        "meta_mean_motion_dot": -2.4e-07,
        "meta_mean_motion_ddot": 0,
        "tle_line1": "1 37867U 11064A   25344.81266762 -.00000024  00000+0  00000+0 0  9994",
        "tle_line2": "2 37867  65.1614  79.2364 0023892 233.6597 135.7131  2.13101258109752"
      },
      "geometry": {
        "type": "Point",
        "coordinates": [
          76.61999480666782,
          -5.311048461829939
        ]
      }
    },
    {
      "type": "Feature",
      "properties": {
        "norad_id": 37868,
        "name": "COSMOS 2477 (745)",
        "group": "glo-ops",
        "lat": 4.7981506728812855,
        "lon": -103.06253627765449,
        "alt_km": 19102.540688013698,
        "timestamp": "2025-12-15T11:38:37.414584+00:00",
        "meta_object_name": "COSMOS 2477 (745)",
        "meta_object_id": "2011-064B",
        "meta_epoch": "2025-12-14T18:55:29.558784",
        "meta_mean_motion": 2.13102875,
        "meta_eccentricity": 0.00211395,
        "meta_inclination": 65.1704,
        "meta_ra_of_asc_node": 79.1794,
        "meta_arg_of_pericenter": 234.5663,
        "meta_mean_anomaly": 125.8854,
        "meta_ephemeris_type": 0,
        "meta_classification_type": "U",
        "meta_norad_cat_id": 37868,
        "meta_element_set_no": 999,
        "meta_rev_at_epoch": 10983,
        "meta_bstar": 0,
        "meta_mean_motion_dot": -5.6e-07,
        "meta_mean_motion_ddot": 0,
        "tle_line1": "1 37868U 11064B   25348.78853656 -.00000056  00000+0  00000+0 0  9994",
        "tle_line2": "2 37868  65.1704  79.1794 0021139 234.5663 125.8854  2.13102875109832"
      },
      "geometry": {
        "type": "Point",
        "coordinates": [
          -103.06253627765449,
          4.7981506728812855
        ]
      }
    },
    {
      "type": "Feature",
      "properties": {
        "norad_id": 37869,
        "name": "COSMOS 2475 (743)",
        "group": "glo-ops",
        "lat": 43.59098873431611,
        "lon": -126.91731396182593,
        "alt_km": 19156.209314694228,
        "timestamp": "2025-12-15T11:38:37.414595+00:00",
        "meta_object_name": "COSMOS 2475 (743)",
        "meta_object_id": "2011-064C",
        "meta_epoch": "2025-12-13T13:22:27.614784",
        "meta_mean_motion": 2.1310138,
        "meta_eccentricity": 0.00262467,
        "meta_inclination": 65.1766,
        "meta_ra_of_asc_node": 79.2411,
        "meta_arg_of_pericenter": 248.6291,
        "meta_mean_anomaly": 203.1701,
        "meta_ephemeris_type": 0,
        "meta_classification_type": "U",
        "meta_norad_cat_id": 37869,
        "meta_element_set_no": 999,
        "meta_rev_at_epoch": 10981,
        "meta_bstar": 0,
        "meta_mean_motion_dot": -5e-07,
        "meta_mean_motion_ddot": 0,
        "tle_line1": "1 37869U 11064C   25347.55726406 -.00000050  00000+0  00000+0 0  9995",
        "tle_line2": "2 37869  65.1766  79.2411 0026246 248.6291 203.1701  2.13101380109814"
      },
      "geometry": {
        "type": "Point",
        "coordinates": [
          -126.91731396182593,
          43.59098873431611
        ]
      }
    },
    {
      "type": "Feature",
      "properties": {
        "norad_id": 39155,
        "name": "COSMOS 2485 (747)",
        "group": "glo-ops",
        "lat": 37.7038871593699,
        "lon": 100.57035914149415,
        "alt_km": 19187.85711148029,
        "timestamp": "2025-12-15T11:38:37.414606+00:00",
        "meta_object_name": "COSMOS 2485 (747)",
        "meta_object_id": "2013-019A",
        "meta_epoch": "2025-12-13T13:15:58.678272",
        "meta_mean_motion": 2.13102947,
        "meta_eccentricity": 0.00246467,
        "meta_inclination": 65.3142,
        "meta_ra_of_asc_node": 79.8396,
        "meta_arg_of_pericenter": 229.7128,
        "meta_mean_anomaly": 130.0848,
        "meta_ephemeris_type": 0,
        "meta_classification_type": "U",
        "meta_norad_cat_id": 39155,
        "meta_element_set_no": 999,
        "meta_rev_at_epoch": 9832,
        "meta_bstar": 0,
        "meta_mean_motion_dot": -4.8e-07,
        "meta_mean_motion_ddot": 0,
        "tle_line1": "1 39155U 13019A   25347.55276248 -.00000048  00000+0  00000+0 0  9998",
        "tle_line2": "2 39155  65.3142  79.8396 0024646 229.7128 130.0848  2.13102947 98326"
      },
      "geometry": {
        "type": "Point",
        "coordinates": [
          100.57035914149415,
          37.7038871593699
        ]
      }
    },
    {
      "type": "Feature",
      "properties": {
        "norad_id": 39620,
        "name": "COSMOS 2492 (754)",
        "group": "glo-ops",
        "lat": 61.05426148870007,
        "lon": 16.05621449211175,
        "alt_km": 19142.751724133588,
        "timestamp": "2025-12-15T11:38:37.414617+00:00",
        "meta_object_name": "COSMOS 2492 (754)",
        "meta_object_id": "2014-012A",
        "meta_epoch": "2025-12-12T02:29:11.116896",
        "meta_mean_motion": 2.1310296,
        "meta_eccentricity": 0.00141989,
        "meta_inclination": 65.408,
        "meta_ra_of_asc_node": 320.2923,
        "meta_arg_of_pericenter": 311.6032,
        "meta_mean_anomaly": 48.2746,
        "meta_ephemeris_type": 0,
        "meta_classification_type": "U",
        "meta_norad_cat_id": 39620,
        "meta_element_set_no": 999,
        "meta_rev_at_epoch": 9125,
        "meta_bstar": 0,
        "meta_mean_motion_dot": -5.5e-07,
        "meta_mean_motion_ddot": 0,
        "tle_line1": "1 39620U 14012A   25346.10360089 -.00000055  00000+0  00000+0 0  9994",
        "tle_line2": "2 39620  65.4080 320.2923 0014198 311.6032  48.2746  2.13102960 91257"
      },
      "geometry": {
        "type": "Point",
        "coordinates": [
          16.05621449211175,
          61.05426148870007
        ]
      }
    },
    {
      "type": "Feature",
      "properties": {
        "norad_id": 40001,
        "name": "COSMOS 2500 (755)",
        "group": "glo-ops",
        "lat": -50.27235329502051,
        "lon": -73.62320685893627,
        "alt_km": 19132.896488453098,
        "timestamp": "2025-12-15T11:38:37.414629+00:00",
        "meta_object_name": "COSMOS 2500 (755)",
        "meta_object_id": "2014-032A",
        "meta_epoch": "2025-12-13T05:08:36.801312",
        "meta_mean_motion": 2.13105905,
        "meta_eccentricity": 0.00081883,
        "meta_inclination": 65.3428,
        "meta_ra_of_asc_node": 320.0161,
        "meta_arg_of_pericenter": 218.9765,
        "meta_mean_anomaly": 140.9635,
        "meta_ephemeris_type": 0,
        "meta_classification_type": "U",
        "meta_norad_cat_id": 40001,
        "meta_element_set_no": 999,
        "meta_rev_at_epoch": 8949,
        "meta_bstar": 0,
        "meta_mean_motion_dot": -6e-07,
        "meta_mean_motion_ddot": 0,
        "tle_line1": "1 40001U 14032A   25347.21431483 -.00000060  00000+0  00000+0 0  9997",
        "tle_line2": "2 40001  65.3428 320.0161 0008188 218.9765 140.9635  2.13105905 89495"
      },
      "geometry": {
        "type": "Point",
        "coordinates": [
          -73.62320685893627,
          -50.27235329502051
        ]
      }
    },
    {
      "type": "Feature",
      "properties": {
        "norad_id": 40315,
        "name": "COSMOS 2501 (702K)",
        "group": "glo-ops",
        "lat": 60.96034148535295,
        "lon": -46.668603641429655,
        "alt_km": 19133.67548935282,
        "timestamp": "2025-12-15T11:38:37.414640+00:00",
        "meta_object_name": "COSMOS 2501 (702K)",
        "meta_object_id": "2014-075A",
        "meta_epoch": "2025-12-14T09:54:07.365600",
        "meta_mean_motion": 2.13101427,
        "meta_eccentricity": 0.00201134,
        "meta_inclination": 63.6139,
        "meta_ra_of_asc_node": 196.7672,
        "meta_arg_of_pericenter": 204.2903,
        "meta_mean_anomaly": 155.6894,
        "meta_ephemeris_type": 0,
        "meta_classification_type": "U",
        "meta_norad_cat_id": 40315,
        "meta_element_set_no": 999,
        "meta_rev_at_epoch": 8591,
        "meta_bstar": 0,
        "meta_mean_motion_dot": 9.7e-07,
        "meta_mean_motion_ddot": 0,
        "tle_line1": "1 40315U 14075A   25348.41258525  .00000097  00000+0  00000+0 0  9998",
        "tle_line2": "2 40315  63.6139 196.7672 0020113 204.2903 155.6894  2.13101427 85910"
      },
      "geometry": {
        "type": "Point",
        "coordinates": [
          -46.668603641429655,
          60.96034148535295
        ]
      }
    }
  ]
}